[Satellite]
VERSION=1.1
NAME=AFRISTAR
NICKNAME=AFRISTAR
TLE1=1 25515U 98063A   15054.71819586  .00000101  00000-0  00000+0 0  9995
TLE2=2 25515   1.6907  71.1851 0003938 262.9123  98.6985  1.00273163 59758
